NORAD_CAT_ID,OBJECT_NAME,OBJECT_TYPE,EPOCH,MEAN_MOTION,ECCENTRICITY,INCLINATION,RA_OF_ASC_NODE,ARG_OF_PERICENTER,MEAN_ANOMALY,BSTAR,MEAN_MOTION_DOT,MEAN_MOTION_DDOT,TLE_LINE0,TLE_LINE1,TLE_LINE2,SEMIMAJOR_AXIS,PERIOD,APOGEE,PERIGEE,DECAYED
52708.0,STARLINK-3962,PAYLOAD,2022-09-18 17:42:08,15.08846521,0.0002048,53.2185,66.16199999999999,48.5788,311.538,-2.7263e-06,-3.32e-06,0.0,0 STARLINK-3962,1 52708U 22053BE  22261.73759709 -.00000332  00000-0 -27263-5 0  9999,2 52708  53.2185  66.1620 0002048  48.5788 311.5380 15.08846521 20107,6917.86,95.437,541.1419999999998,538.309,0.0
52708.0,STARLINK-3962,PAYLOAD,2022-09-19 12:46:45,15.08844843,0.0002194,53.219,62.5949,47.2228,312.8948,0.00011413,1.529e-05,0.0,0 STARLINK-3962,1 52708U 22053BE  22262.53247615  .00001529  00000-0  11413-3 0  9991,2 52708  53.2190  62.5949 0002194  47.2228 312.8948 15.08844843 20226,6917.866,95.437,541.248,538.2130000000002,0.0
52708.0,STARLINK-3962,PAYLOAD,2022-09-19 19:08:18,15.08840455,0.0001935,53.2187,61.4044,50.3648,309.7515,2.343e-05,8.5e-07,0.0,0 STARLINK-3962,1 52708U 22053BE  22262.79743754  .00000085  00000-0  23430-4 0  9993,2 52708  53.2187  61.4044 0001935  50.3648 309.7515 15.08840455 19632,6917.879,95.438,541.0830000000002,538.405,0.0
52708.0,STARLINK-3962,PAYLOAD,2022-09-19 20:43:41,15.08841422,0.0001936,53.2187,61.1071,49.7326,310.3835,3.1752e-05,2.17e-06,0.0,0 STARLINK-3962,1 52708U 22053BE  22262.86367703  .00000217  00000-0  31752-4 0  9990,2 52708  53.2187  61.1071 0001936  49.7326 310.3835 15.08841422 20275,6917.876,95.437,541.08,538.4019999999998,0.0
52708.0,STARLINK-3962,PAYLOAD,2022-09-20 12:37:32,15.08842499,0.0002024,53.2188,58.1335,48.791,311.3256,5.4784e-05,5.84e-06,0.0,0 STARLINK-3962,1 52708U 22053BE  22263.52607622  .00000584  00000-0  54784-4 0  9998,2 52708  53.2188  58.1335 0002024  48.7910 311.3256 15.08842499 20376,6917.873000000001,95.437,541.138,538.3380000000002,0.0
52708.0,STARLINK-3962,PAYLOAD,2022-09-20 20:34:29,15.08839159,0.0001931,53.2197,56.6469,45.1389,314.9759,-3.3177e-05,-8.16e-06,0.0,0 STARLINK-3962,1 52708U 22053BE  22263.85728120 -.00000816  00000-0 -33177-4 0  9994,2 52708  53.2197  56.6469 0001931  45.1389 314.9759 15.08839159 20426,6917.8830000000025,95.438,541.0840000000002,538.4119999999998,0.0
52708.0,STARLINK-3962,PAYLOAD,2022-09-20 22:09:52,15.08838141,0.0001918,53.2196,56.3494,46.3247,313.7904,-4.124e-06,-3.54e-06,0.0,0 STARLINK-3962,1 52708U 22053BE  22263.92352102 -.00000354  00000-0 -41240-5 0  9993,2 52708  53.2196  56.3494 0001918  46.3247 313.7904 15.08838141 19800,6917.886,95.438,541.078,538.424,0.0
52708.0,STARLINK-3962,PAYLOAD,2022-09-21 18:49:53,15.08828323,0.0001861,53.2198,52.484,43.8698,316.2441,-2.2205e-05,-6.41e-06,0.0,0 STARLINK-3962,1 52708U 22053BE  22264.78465022 -.00000641  00000-0 -22205-4 0  9992,2 52708  53.2198  52.4840 0001861  43.8698 316.2441 15.08828323 19932,6917.916,95.438,541.069,538.494,0.0
52708.0,STARLINK-3962,PAYLOAD,2022-09-21 20:25:16,15.08829568,0.0001896,53.2198,52.1869,40.9737,319.1397,-1.0869e-05,-4.61e-06,0.0,0 STARLINK-3962,1 52708U 22053BE  22264.85088955 -.00000461  00000-0 -10869-4 0  9999,2 52708  53.2198  52.1869 0001896  40.9737 319.1397 15.08829568 20576,6917.9119999999975,95.438,541.089,538.466,0.0
52708.0,STARLINK-3962,PAYLOAD,2022-09-22 13:54:31,15.08834146,0.000188,53.2198,48.9159,40.851,319.2623,8.756399999999999e-05,1.106e-05,0.0,0 STARLINK-3962,1 52708U 22053BE  22265.57952704  .00001106  00000-0  87564-4 0  9992,2 52708  53.2198  48.9159 0001880  40.8510 319.2623 15.08834146 20685,6917.898,95.438,541.064,538.4630000000002,0.0
52708.0,STARLINK-3962,PAYLOAD,2022-09-22 17:05:17,15.08837153,0.0001895,53.2199,48.3212,41.2833,318.8302,0.00011045,1.47e-05,0.0,0 STARLINK-3962,1 52708U 22053BE  22265.71200514  .00001470  00000-0  11045-3 0  9997,2 52708  53.2199  48.3212 0001895  41.2833 318.8302 15.08837153 20072,6917.889,95.438,541.065,538.443,0.0
52708.0,STARLINK-3962,PAYLOAD,2022-09-23 13:45:18,15.08832399,0.0001913,53.22,44.456,40.0155,320.0978,9.7993e-05,1.271e-05,0.0,0 STARLINK-3962,1 52708U 22053BE  22266.57313143  .00001271  00000-0  97993-4 0  9991,2 52708  53.2200  44.4560 0001913  40.0155 320.0978 15.08832399 20838,6917.904,95.438,541.092,538.445,0.0
52708.0,STARLINK-3962,PAYLOAD,2022-09-23 18:31:27,15.08850189,0.0001806,53.22,43.5642,37.4282,322.6835,-0.00010925,-2.027e-05,0.0,0 STARLINK-3962,1 52708U 22053BE  22266.77184688 -.00002027  00000-0 -10925-3 0  9994,2 52708  53.2200  43.5642 0001806  37.4282 322.6835 15.08850189 20232,6917.849,95.437,540.964,538.465,0.0
52708.0,STARLINK-3962,PAYLOAD,2022-09-24 13:36:05,15.08844179,0.0001888,53.2202,39.9964,39.1591,320.9538,5.6779e-05,6.16e-06,0.0,0 STARLINK-3962,1 52708U 22053BE  22267.56672800  .00000616  00000-0  56779-4 0  9998,2 52708  53.2202  39.9964 0001888  39.1591 320.9538 15.08844179 20987,6917.868,95.437,541.039,538.427,0.0
52708.0,STARLINK-3962,PAYLOAD,2022-09-24 15:11:28,15.08843284,0.0001872,53.2202,39.699,39.2404,320.8724,4.7659e-05,4.71e-06,0.0,0 STARLINK-3962,1 52708U 22053BE  22267.63296862  .00000471  00000-0  47659-4 0  9992,2 52708  53.2202  39.6990 0001872  39.2404 320.8724 15.08843284 20364,6917.87,95.437,541.03,538.44,0.0
52708.0,STARLINK-3962,PAYLOAD,2022-09-25 11:51:28,15.08847548,0.0001819,53.2203,35.8329,41.1979,318.915,0.00010898,1.447e-05,0.0,0 STARLINK-3962,1 52708U 22053BE  22268.49408161  .00001447  00000-0  10898-3 0  9992,2 52708  53.2203  35.8329 0001819  41.1979 318.9150 15.08847548 21122,6917.857,95.437,540.981,538.464,0.0
52708.0,STARLINK-3962,PAYLOAD,2022-09-25 18:13:01,15.08845883,0.0001794,53.2204,34.6433,40.4774,319.6351,8.322200000000001e-05,1.037e-05,0.0,0 STARLINK-3962,1 52708U 22053BE  22268.75904264  .00001037  00000-0  83222-4 0  9993,2 52708  53.2204  34.6433 0001794  40.4774 319.6351 15.08845883 21168,6917.861999999999,95.437,540.9680000000002,538.486,0.0
52708.0,STARLINK-3962,PAYLOAD,2022-09-26 11:42:16,15.08834477,0.0001871,53.2204,31.3725,41.6105,318.5029,-4.5733e-05,-1.016e-05,0.0,0 STARLINK-3962,1 52708U 22053BE  22269.48769381 -.00001016  00000-0 -45733-4 0  9997,2 52708  53.2204  31.3725 0001871  41.6105 318.5029 15.08834477 21272,6917.897,95.438,541.057,538.4680000000002,0.0
52708.0,STARLINK-3962,PAYLOAD,2022-09-26 18:03:49,15.08830024,0.0001875999999999,53.2205,30.1832,41.1698,318.9435,-8.400299999999999e-05,-1.624e-05,0.0,0 STARLINK-3962,1 52708U 22053BE  22269.75265861 -.00001624  00000-0 -84003-4 0  9999,2 52708  53.2205  30.1832 0001876  41.1698 318.9435 15.08830024 21310,6917.911,95.438,541.0740000000002,538.4780000000002,0.0
52708.0,STARLINK-3962,PAYLOAD,2022-09-27 11:33:03,15.08852774,0.0002290999999999,53.2191,26.9059,52.7907,307.3294,-0.00018099,-3.169e-05,0.0,0 STARLINK-3962,1 52708U 22053BE  22270.48128927 -.00003169  00000-0 -18099-3 0  9999,2 52708  53.2191  26.9059 0002291  52.7907 307.3294 15.08852774 20793,6917.840999999999,95.437,541.2909999999998,538.121,0.0
52708.0,STARLINK-3962,PAYLOAD,2022-09-27 19:29:57,15.08856035,0.0002069,53.2201,25.4256,40.1667,319.9477,0.00015973,2.256e-05,0.0,0 STARLINK-3962,1 52708U 22053BE  22270.81247570  .00002256  00000-0  15973-3 0  9994,2 52708  53.2201  25.4256 0002069  40.1667 319.9477 15.08856035 21477,6917.831,95.437,541.128,538.265,0.0
52708.0,STARLINK-3962,PAYLOAD,2022-09-28 00:16:08,15.08835141,0.0002543,53.2207,24.5321,41.2172,318.9012,-2.9226e-05,-7.54e-06,0.0,0 STARLINK-3962,1 52708U 22053BE  22271.01121489 -.00000754  00000-0 -29226-4 0  9997,2 52708  53.2207  24.5321 0002543  41.2172 318.9012 15.08835141 20878,6917.895,95.438,541.519,538.001,0.0
52708.0,STARLINK-3962,PAYLOAD,2022-09-28 11:23:51,15.08827933,0.0002058,53.2215,22.4525,39.3923,320.7219,0.00010093,1.318e-05,0.0,0 STARLINK-3962,1 52708U 22053BE  22271.47489734  .00001318  00000-0  10093-3 0  9993,2 52708  53.2215  22.4525 0002058  39.3923 320.7219 15.08827933 21571,6917.917,95.438,541.206,538.359,0.0
52708.0,STARLINK-3962,PAYLOAD,2022-09-28 19:20:47,15.08826157,0.0002133999999999,53.2212,20.9654,37.4159,322.6981,7.211899999999999e-05,8.59e-06,0.0,0 STARLINK-3962,1 52708U 22053BE  22271.80610225  .00000859  00000-0  72119-4 0  9998,2 52708  53.2212  20.9654 0002134  37.4159 322.6981 15.08826157 20998,6917.9230000000025,95.438,541.264,538.311,0.0
52708.0,STARLINK-3962,PAYLOAD,2022-09-29 11:14:38,15.08846108,0.0002340999999999,53.2205,17.9935,34.636,325.4785,-8.6642e-05,-1.667e-05,0.0,0 STARLINK-3962,1 52708U 22053BE  22272.46849950 -.00001667  00000-0 -86642-4 0  9996,2 52708  53.2205  17.9935 0002341  34.6360 325.4785 15.08846108 21724,6917.861999999999,95.437,541.346,538.107,0.0
52708.0,STARLINK-3962,PAYLOAD,2022-09-29 17:36:10,15.08850728,0.0002273,53.22,16.8034,38.0339,322.0813,-1.9253e-05,-5.95e-06,0.0,0 STARLINK-3962,1 52708U 22053BE  22272.73345404 -.00000595  00000-0 -19253-4 0  9994,2 52708  53.2200  16.8034 0002273  38.0339 322.0813 15.08850728 21767,6917.848000000001,95.437,541.285,538.14,0.0
52708.0,STARLINK-3962,PAYLOAD,2022-09-30 11:05:25,15.08841399,0.0002376999999999,53.2201,13.5317,35.9067,324.2084,0.0001296,1.775e-05,0.0,0 STARLINK-3962,1 52708U 22053BE  22273.46209681  .00001775  00000-0  12960-3 0  9997,2 52708  53.2201  13.5317 0002377  35.9067 324.2084 15.08841399 21875,6917.876,95.437,541.385,538.097,0.0
52708.0,STARLINK-3962,PAYLOAD,2022-09-30 15:51:33,15.08852106,0.0002197,53.2207,12.6398,35.8544,324.2595,0.00022838,3.35e-05,0.0,0 STARLINK-3962,1 52708U 22053BE  22273.66080693  .00003350  00000-0  22838-3 0  9995,2 52708  53.2207  12.6398 0002197  35.8544 324.2595 15.08852106 21908,6917.843000000003,95.437,541.2280000000002,538.189,0.0
52708.0,STARLINK-3962,PAYLOAD,2022-10-01 12:31:34,15.08850853,0.000223,53.2204,8.7741,38.1569,321.9581,8.389700000000001e-05,1.048e-05,0.0,0 STARLINK-3962,1 52708U 22053BE  22274.52192946  .00001048  00000-0  83897-4 0  9991,2 52708  53.2204   8.7741 0002230  38.1569 321.9581 15.08850853 22035,6917.847,95.437,541.255,538.17,0.0
